OBJECT_NAME,OBJECT_ID,EPOCH,MEAN_MOTION,ECCENTRICITY,INCLINATION,RA_OF_ASC_NODE,ARG_OF_PERICENTER,MEAN_ANOMALY,EPHEMERIS_TYPE,CLASSIFICATION_TYPE,NORAD_CAT_ID,ELEMENT_SET_NO,REV_AT_EPOCH,BSTAR,MEAN_MOTION_DOT,MEAN_MOTION_DDOT
ANGOSAT 2,2022-131A,2026-07-11T11:57:13.517568,1.00271398,.00002383,0.0206,116.2041,125.0439,250.4629,0,U,54033,999,1372,0,.141E-5,0
EUTELSAT HOTBIRD 13F,2022-134A,2026-07-11T08:41:02.594976,1.00270860,.00018943,0.0527,288.2883,64.0246,80.2271,0,U,54048,999,1361,0,.93E-6,0
LDPE-2,2022-144A,2026-07-12T04:19:22.805184,1.00542749,.0002389,5.6709,63.4410,110.8120,47.1652,0,U,54219,999,1209,0,.42E-6,0
EUTELSAT HOTBIRD 13G,2022-146A,2026-07-11T20:27:47.277792,1.00272538,.00022491,0.0446,222.9067,322.6434,64.1524,0,U,54225,999,771,0,.91E-6,0
ZHONGXING-19,2022-148A,2026-07-12T04:01:14.706912,1.00270471,.0002928,0.0146,308.7561,190.2055,14.5987,0,U,54230,999,1363,0,-.79E-6,0
GALAXY 31 (G-31),2022-153A,2026-07-12T04:22:52.470336,1.00270088,.0000939,0.0257,60.8113,59.2464,114.7341,0,U,54243,999,738,0,0,0
GALAXY 32 (G-32),2022-153B,2026-07-11T06:16:55.034976,1.00271069,.00014569,0.0115,41.9388,4.2849,246.1793,0,U,54244,999,1338,0,-.167E-5,0
EUTELSAT 10B,2022-157A,2026-07-11T23:52:19.861248,1.00274592,.0002013,0.0583,94.8222,32.6270,170.5273,0,U,54259,999,1327,0,.72E-6,0
GALAXY 35 (G-35),2022-170A,2026-07-12T02:48:09.963072,1.00269195,.0001873,0.0215,53.4133,63.5924,121.9480,0,U,54741,999,1314,0,0,0
GALAXY 36 (G-36),2022-170B,2026-07-12T02:49:24.844224,1.00271080,.0002361,0.0287,111.1132,348.7092,143.5481,0,U,54742,999,1302,0,-.182E-5,0
METEOSAT-12 (MTG-I1),2022-170C,2026-07-12T03:14:41.667936,1.00267041,.0003777,0.7218,19.1276,82.8000,236.5011,0,U,54743,999,1322,0,-.6E-7,0
SHIJIAN-23 (SJ-23),2023-002A,2026-07-11T17:10:31.710720,1.00078207,.0003417,3.7776,78.0038,270.2862,330.4998,0,U,55131,999,1275,0,-.344E-5,0
APSTAR-6E,2023-005A,2026-07-11T15:17:32.134272,1.00272143,.00017428,0.0557,234.1096,330.9010,87.9369,0,U,55239,999,1893,0,-.312E-5,0
USA 342,2023-008A,2026-07-09T06:55:38.597952,1.00269378,.0000262,0.0052,352.2306,7.3445,55.4773,0,U,55263,999,1273,0,0,0
LDPE-3A,2023-008B,2026-07-12T03:57:30.066048,0.99150942,.0001507,2.4103,81.3553,79.7949,338.3022,0,U,55264,999,1206,0,-.289E-5,0
ELEKTRO-L 4,2023-016A,2026-07-11T17:38:16.020096,1.00272384,.0001249,0.1078,128.6577,48.2008,183.1363,0,U,55506,999,1258,0,-.53E-6,0
AMAZONAS NEXUS,2023-017A,2026-07-11T13:16:04.760832,1.00269216,.00044123,0.0349,41.3147,43.3627,342.7993,0,U,55508,999,728,0,-.277E-5,0
ZHONGXING-26,2023-023A,2026-07-11T15:51:46.357344,1.00274397,.00033642,0.0660,71.3982,31.9982,189.2021,0,U,55686,999,1247,0,-.349E-5,0
LUCH-5X (OLYMP-K 2),2023-031A,2026-07-11T16:23:20.565024,1.00270002,.0000943,0.0297,92.0561,160.2588,345.0840,0,U,55841,999,1218,0,.38E-6,0
GAOFEN-13 02,2023-036A,2026-07-12T04:50:38.704704,1.00274870,.0003716,1.0265,4.1653,336.3035,170.4882,0,U,55912,999,1234,0,-.216E-5,0
SES-18,2023-038A,2026-07-12T02:45:17.739360,1.00271284,.0000719,0.0484,264.2728,309.0025,14.9684,0,U,55970,999,1235,0,-.98E-6,0
SES-19,2023-038B,2026-07-12T04:19:00.341184,1.00272807,.0001608,0.0193,320.8161,161.8745,97.2465,0,U,55971,999,1234,0,.9E-6,0
INTELSAT 40E (IS-40E),2023-052A,2026-07-11T19:58:10.788384,1.00271359,.00022043,0.0146,86.9489,58.2894,353.0423,0,U,56174,999,1207,0,-.17E-5,0
VIASAT-3 F1,2023-060A,2026-07-11T23:24:04.504032,1.00268917,.0000924,0.0169,24.8978,83.0164,84.0035,0,U,56370,999,1168,0,0,0
ARCTURUS,2023-060B,2026-07-12T02:32:21.863904,1.00595943,.0000826,2.8368,79.6324,133.1589,210.7204,0,U,56371,999,1170,0,-.319E-5,0
GS-1,2023-060C,2026-07-12T00:14:55.194720,1.00267656,.0003452,2.7876,79.5398,281.3860,22.0642,0,U,56372,999,778,0,-.222E-5,0
BEIDOU-3 G4,2023-066A,2026-07-12T04:50:38.704704,1.00273471,.0004866,0.4632,337.9867,188.2063,336.6123,0,U,56564,999,1164,0,-.278E-5,0
ARABSAT-7B (BADR-8),2023-075A,2026-07-12T03:22:10.951392,1.00270649,.0003357,0.0739,29.8924,0.5559,336.1307,0,U,56757,999,1136,0,.147E-5,0
NVS-01 (IRNSS-1J),2023-076A,2026-07-12T00:26:24.093888,1.00266111,.0003545,2.1096,243.2340,7.3914,175.3807,0,U,56759,999,1136,0,-.331E-5,0
NUSANTARA TIGA (SATRIA),2023-086A,2026-07-11T14:08:38.955264,1.00267940,.00022404,0.0344,10.1723,330.6150,306.8651,0,U,57045,999,1000,0,-.23E-5,0
H2SAT (HEINRICH HERTZ),2023-093A,2026-07-12T03:14:56.645376,1.00269645,.0000342,0.0161,97.3578,42.3690,199.7410,0,U,57213,999,1116,0,.4E-7,0
SYRACUSE 4B,2023-093B,2026-07-11T23:47:35.314944,1.00270648,.000049,0.0299,52.4610,191.8194,36.0535,0,U,57214,999,721,0,0,0
