ANGOSAT 2               
1 54033U 22131A   26192.49807312  .00000141  00000+0  00000+0 0  9992
2 54033   0.0206 116.2041 0000238 125.0439 250.4629  1.00271398 13729
EUTELSAT HOTBIRD 13F    
1 54048U 22134A   26192.36183559  .00000093  00000+0  00000+0 0  9993
2 54048   0.0527 288.2883 0001894  64.0246  80.2271  1.00270860 13615
LDPE-2                  
1 54219U 22144A   26193.18012506  .00000042  00000+0  00000+0 0  9992
2 54219   5.6709  63.4410 0002389 110.8120  47.1652  1.00542749 12092
EUTELSAT HOTBIRD 13G    
1 54225U 22146A   26192.85263053  .00000091  00000+0  00000+0 0  9993
2 54225   0.0446 222.9067 0002249 322.6434  64.1524  1.00272538  7718
ZHONGXING-19            
1 54230U 22148A   26193.16753133 -.00000079  00000+0  00000+0 0  9996
2 54230   0.0146 308.7561 0002928 190.2055  14.5987  1.00270471 13639
GALAXY 31 (G-31)        
1 54243U 22153A   26193.18255174  .00000000  00000+0  00000+0 0  9993
2 54243   0.0257  60.8113 0000939  59.2464 114.7341  1.00270088  7389
GALAXY 32 (G-32)        
1 54244U 22153B   26192.26174809 -.00000167  00000+0  00000+0 0  9992
2 54244   0.0115  41.9388 0001456   4.2849 246.1793  1.00271069 13387
EUTELSAT 10B            
1 54259U 22157A   26192.99467432  .00000072  00000+0  00000+0 0  9993
2 54259   0.0583  94.8222 0002013  32.6270 170.5273  1.00274592 13274
GALAXY 35 (G-35)        
1 54741U 22170A   26193.11678198  .00000000  00000+0  00000+0 0  9993
2 54741   0.0215  53.4133 0001873  63.5924 121.9480  1.00269195 13145
GALAXY 36 (G-36)        
1 54742U 22170B   26193.11764866 -.00000182  00000+0  00000+0 0  9994
2 54742   0.0287 111.1132 0002361 348.7092 143.5481  1.00271080 13027
METEOSAT-12 (MTG-I1)    
1 54743U 22170C   26193.13520449 -.00000006  00000+0  00000+0 0  9999
2 54743   0.7218  19.1276 0003777  82.8000 236.5011  1.00267041 13228
SHIJIAN-23 (SJ-23)      
1 55131U 23002A   26192.71564480 -.00000344  00000+0  00000+0 0  9997
2 55131   3.7776  78.0038 0003417 270.2862 330.4998  1.00078207 12751
APSTAR-6E               
1 55239U 23005A   26192.63717748 -.00000312  00000+0  00000+0 0  9992
2 55239   0.0557 234.1096 0001742 330.9010  87.9369  1.00272143 18931
USA 342                 
1 55263U 23008A   26190.28864118  .00000000  00000+0  00000+0 0  9998
2 55263   0.0052 352.2306 0000262   7.3445  55.4773  1.00269378 12734
LDPE-3A                 
1 55264U 23008B   26193.16493132 -.00000289  00000+0  00000+0 0  9993
2 55264   2.4103  81.3553 0001507  79.7949 338.3022  0.99150942 12066
ELEKTRO-L 4             
1 55506U 23016A   26192.73490764 -.00000053  00000+0  00000+0 0  9990
2 55506   0.1078 128.6577 0001249  48.2008 183.1363  1.00272384 12581
AMAZONAS NEXUS          
1 55508U 23017A   26192.55283288 -.00000277  00000+0  00000+0 0  9992
2 55508   0.0349  41.3147 0004412  43.3627 342.7993  1.00269216  7288
ZHONGXING-26            
1 55686U 23023A   26192.66095321 -.00000349  00000+0  00000+0 0  9997
2 55686   0.0660  71.3982 0003364  31.9982 189.2021  1.00274397 12472
LUCH-5X (OLYMP-K 2)     
1 55841U 23031A   26192.68287691  .00000038  00000+0  00000+0 0  9998
2 55841   0.0297  92.0561 0000943 160.2588 345.0840  1.00270002 12180
GAOFEN-13 02            
1 55912U 23036A   26193.20183686 -.00000216  00000+0  00000+0 0  9999
2 55912   1.0265   4.1653 0003716 336.3035 170.4882  1.00274870 12346
SES-18                  
1 55970U 23038A   26193.11478865 -.00000098  00000+0  00000+0 0  9999
2 55970   0.0484 264.2728 0000719 309.0025  14.9684  1.00271284 12359
SES-19                  
1 55971U 23038B   26193.17986506  .00000090  00000+0  00000+0 0  9993
2 55971   0.0193 320.8161 0001608 161.8745  97.2465  1.00272807 12340
INTELSAT 40E (IS-40E)   
1 56174U 23052A   26192.83206931 -.00000170  00000+0  00000+0 0  9994
2 56174   0.0146  86.9489 0002204  58.2894 353.0423  1.00271359 12072
VIASAT-3 F1             
1 56370U 23060A   26192.97505213  .00000000  00000+0  00000+0 0  9992
2 56370   0.0169  24.8978 0000924  83.0164  84.0035  1.00268917 11684
ARCTURUS                
1 56371U 23060B   26193.10580861 -.00000319  00000+0  00000+0 0  9995
2 56371   2.8368  79.6324 0000826 133.1589 210.7204  1.00595943 11709
GS-1                    
1 56372U 23060C   26193.01036105 -.00000222  00000+0  00000+0 0  9996
2 56372   2.7876  79.5398 0003452 281.3860  22.0642  1.00267656  7789
BEIDOU-3 G4             
1 56564U 23066A   26193.20183686 -.00000278  00000+0  00000+0 0  9994
2 56564   0.4632 337.9867 0004866 188.2063 336.6123  1.00273471 11649
ARABSAT-7B (BADR-8)     
1 56757U 23075A   26193.14040453  .00000147  00000+0  00000+0 0  9999
2 56757   0.0739  29.8924 0003357   0.5559 336.1307  1.00270649 11360
NVS-01 (IRNSS-1J)       
1 56759U 23076A   26193.01833442 -.00000331  00000+0  00000+0 0  9992
2 56759   2.1096 243.2340 0003545   7.3914 175.3807  1.00266111 11361
NUSANTARA TIGA (SATRIA) 
1 57045U 23086A   26192.58933976 -.00000230  00000+0  00000+0 0  9994
2 57045   0.0344  10.1723 0002240 330.6150 306.8651  1.00267940 10003
H2SAT (HEINRICH HERTZ)  
1 57213U 23093A   26193.13537784  .00000004  00000+0  00000+0 0  9996
2 57213   0.0161  97.3578 0000342  42.3690 199.7410  1.00269645 11163
SYRACUSE 4B             
1 57214U 23093B   26192.99138096  .00000000  00000+0  00000+0 0  9999
2 57214   0.0299  52.4610 0000490 191.8194  36.0535  1.00270648  7215
